SL-14 R/B               
1 16792U 86046B   17345.70446493  .00000082  00000-0  69756-5 0  9994
2 16792  82.4837  35.3789 0025683  70.1322  69.0945 14.83160649680103
